NORAD_CAT_ID,OBJECT_NAME,OBJECT_TYPE,EPOCH,MEAN_MOTION,ECCENTRICITY,INCLINATION,RA_OF_ASC_NODE,ARG_OF_PERICENTER,MEAN_ANOMALY,BSTAR,MEAN_MOTION_DOT,MEAN_MOTION_DDOT,TLE_LINE0,TLE_LINE1,TLE_LINE2,SEMIMAJOR_AXIS,PERIOD,APOGEE,PERIGEE,DECAYED
52484.0,STARLINK-3887,PAYLOAD,2022-11-21 04:21:04,15.08838239,0.0002445,53.2195,66.3777,31.6824,328.4315,-6.0126e-06,-3.84e-06,0.0,0 STARLINK-3887,1 52484U 22049AK  22325.18129638 -.00000384  00000-0 -60126-5 0  9999,2 52484  53.2195  66.3777 0002445  31.6824 328.4315 15.08838239 30573,6917.886,95.438,541.442,538.059,0.0
52484.0,STARLINK-3887,PAYLOAD,2022-11-21 09:07:14,15.08826913,0.0002373,53.2192,65.4849,33.6495,326.4648,-5.4352e-05,-1.153e-05,0.0,0 STARLINK-3887,1 52484U 22049AK  22325.38002359 -.00001153  00000-0 -54352-4 0  9999,2 52484  53.2192  65.4849 0002373  33.6495 326.4648 15.08826913 30603,6917.92,95.438,541.427,538.144,0.0
52484.0,STARLINK-3887,PAYLOAD,2022-11-21 12:18:00,15.08830376,0.0002059,53.2193,64.8878,45.6027,314.5133,-2.8614e-05,-7.43e-06,0.0,0 STARLINK-3887,1 52484U 22049AK  22325.51250096 -.00000743  00000-0 -28614-4 0  9993,2 52484  53.2193  64.8878 0002059  45.6027 314.5133 15.08830376 30463,6917.91,95.438,541.1990000000002,538.35,0.0
52484.0,STARLINK-3887,PAYLOAD,2022-11-22 05:47:16,15.08819176,0.0002414,53.2195,61.6183,35.7262,324.3891,-5.561399999999999e-05,-1.173e-05,0.0,0 STARLINK-3887,1 52484U 22049AK  22326.24115787 -.00001173  00000-0 -55614-4 0  9999,2 52484  53.2195  61.6183 0002414  35.7262 324.3891 15.08819176 30730,6917.944,95.439,541.479,538.139,0.0
52484.0,STARLINK-3887,PAYLOAD,2022-11-22 13:44:11,15.08824552,0.0002474,53.2196,60.1325,35.1146,325.0009,-5.4574000000000005e-06,-3.75e-06,0.0,0 STARLINK-3887,1 52484U 22049AK  22326.57235712 -.00000375  00000-0 -54574-5 0  9994,2 52484  53.2196  60.1325 0002474  35.1146 325.0009 15.08824552 30625,6917.928000000001,95.439,541.504,538.081,0.0
52484.0,STARLINK-3887,PAYLOAD,2022-11-23 10:24:12,15.08837378,0.0002532,53.2197,56.2674,37.539,322.5778,0.00010872,1.442e-05,0.0,0 STARLINK-3887,1 52484U 22049AK  22327.43347330  .00001442  00000-0  10872-3 0  9995,2 52484  53.2197  56.2674 0002532  37.5390 322.5778 15.08837378 30918,6917.888000000001,95.438,541.505,538.002,0.0
52484.0,STARLINK-3887,PAYLOAD,2022-11-23 15:10:21,15.0884109,0.0002559,53.2198,55.375,37.796,322.3212,0.00013677,1.889e-05,0.0,0 STARLINK-3887,1 52484U 22049AK  22327.63219117  .00001889  00000-0  13677-3 0  9999,2 52484  53.2198  55.3750 0002559  37.7960 322.3212 15.08841090 30780,6917.877,95.437,541.512,537.972,0.0
52484.0,STARLINK-3887,PAYLOAD,2022-11-24 11:50:22,15.08840636,0.0002578,53.2194,51.5098,38.2517,321.8658,0.00024445,3.604e-05,0.0,0 STARLINK-3887,1 52484U 22049AK  22328.49331451  .00003604  00000-0  24445-3 0  9992,2 52484  53.2194  51.5098 0002578  38.2517 321.8658 15.08840636 31070,6917.878000000002,95.438,541.5269999999998,537.96,0.0
52484.0,STARLINK-3887,PAYLOAD,2022-11-24 15:01:08,15.08845037,0.0002566,53.2195,50.914,38.0269,322.0904,0.00021642,3.158e-05,0.0,0 STARLINK-3887,1 52484U 22049AK  22328.62579382  .00003158  00000-0  21642-3 0  9994,2 52484  53.2195  50.9140 0002566  38.0269 322.0904 15.08845037 30932,6917.865,95.437,541.505,537.955,0.0
52484.0,STARLINK-3887,PAYLOAD,2022-11-25 11:41:08,15.08849417,0.0002559,53.2191,47.0495,35.3927,324.7235,7.2582e-05,8.67e-06,0.0,0 STARLINK-3887,1 52484U 22049AK  22329.48690767  .00000867  00000-0  72582-4 0  9994,2 52484  53.2191  47.0495 0002559  35.3927 324.7235 15.08849417 31068,6917.852,95.437,541.487,537.946,0.0
52484.0,STARLINK-3887,PAYLOAD,2022-11-26 03:34:59,15.08855085,0.0002389,53.2196,44.0756,34.0639,326.0507,0.0001789,2.561e-05,0.0,0 STARLINK-3887,1 52484U 22049AK  22330.14929969  .00002561  00000-0  17890-3 0  9991,2 52484  53.2196  44.0756 0002389  34.0639 326.0507 15.08855085 31321,6917.834,95.437,541.352,538.047,0.0
52484.0,STARLINK-3887,PAYLOAD,2022-11-26 11:31:55,15.08853242,0.0002529,53.2194,42.5891,34.2538,325.8617,0.00012573,1.714e-05,0.0,0 STARLINK-3887,1 52484U 22049AK  22330.48049827  .00001714  00000-0  12573-3 0  9996,2 52484  53.2194  42.5891 0002529  34.2538 325.8617 15.08853242 31218,6917.84,95.437,541.4540000000002,537.955,0.0
52484.0,STARLINK-3887,PAYLOAD,2022-11-26 14:42:41,15.08852979,0.0002511,53.219,41.9948,34.784,325.3316,0.00020179,2.926e-05,0.0,0 STARLINK-3887,1 52484U 22049AK  22330.61297748  .00002926  00000-0  20179-3 0  9995,2 52484  53.2190  41.9948 0002511  34.7840 325.3316 15.08852979 31231,6917.840999999999,95.437,541.443,537.969,0.0
52484.0,STARLINK-3887,PAYLOAD,2022-11-27 11:22:42,15.08837479,0.0002563,53.2194,38.1294,31.4821,328.6324,-0.00015044,-2.682e-05,0.0,0 STARLINK-3887,1 52484U 22049AK  22331.47409905 -.00002682  00000-0 -15044-3 0  9996,2 52484  53.2194  38.1294 0002563  31.4821 328.6324 15.08837479 31522,6917.888000000001,95.438,541.526,537.98,0.0
52484.0,STARLINK-3887,PAYLOAD,2022-11-28 04:51:56,15.08850627,0.0002746,53.2183,34.8605,33.4227,326.6938,-8.753e-05,-1.682e-05,0.0,0 STARLINK-3887,1 52484U 22049AK  22332.20273180 -.00001682  00000-0 -87530-4 0  9991,2 52484  53.2183  34.8605 0002746  33.4227 326.6938 15.08850627 31635,6917.848000000001,95.437,541.613,537.813,0.0
52484.0,STARLINK-3887,PAYLOAD,2022-11-28 08:02:42,15.08838178,0.0002546,53.2189,34.2611,33.0702,327.0449,-0.00013311,-2.406e-05,0.0,0 STARLINK-3887,1 52484U 22049AK  22332.33521572 -.00002406  00000-0 -13311-3 0  9996,2 52484  53.2189  34.2611 0002546  33.0702 327.0449 15.08838178 31655,6917.886,95.438,541.512,537.99,0.0
52484.0,STARLINK-3887,PAYLOAD,2022-11-28 09:38:06,15.08836227,0.0002816,53.219,33.9659,27.1494,332.9645,-6.7561e-05,-1.364e-05,0.0,0 STARLINK-3887,1 52484U 22049AK  22332.40145908 -.00001364  00000-0 -67561-4 0  9998,2 52484  53.2190  33.9659 0002816  27.1494 332.9645 15.08836227 31507,6917.892,95.438,541.705,537.809,0.0
52484.0,STARLINK-3887,PAYLOAD,2022-11-29 04:42:43,15.08834773,0.0003012,53.2176,30.3984,26.1129,334.0014,5.707399999999999e-07,-2.8e-06,0.0,0 STARLINK-3887,1 52484U 22049AK  22333.19634089 -.00000280  00000-0  57074-6 0  9993,2 52484  53.2176  30.3984 0003012  26.1129 334.0014 15.08834773 31626,6917.896,95.438,541.845,537.678,0.0
52484.0,STARLINK-3887,PAYLOAD,2022-11-29 11:04:16,15.08833226,0.000314,53.2177,29.2093,24.4576,335.6564,-1.831e-05,-5.8e-06,0.0,0 STARLINK-3887,1 52484U 22049AK  22333.46130278 -.00000580  00000-0 -18310-4 0  9996,2 52484  53.2177  29.2093 0003140  24.4576 335.6564 15.08833226 31825,6917.901,95.438,541.938,537.594,0.0
52484.0,STARLINK-3887,PAYLOAD,2022-11-30 12:30:27,15.08837618,0.0002403,53.218,24.4494,31.6986,328.415,8.9449e-06,-1.46e-06,0.0,0 STARLINK-3887,1 52484U 22049AK  22334.52114591 -.00000146  00000-0  89449-5 0  9993,2 52484  53.2180  24.4494 0002403  31.6986 328.4150 15.08837618 31827,6917.888000000001,95.438,541.415,538.09,0.0
52484.0,STARLINK-3887,PAYLOAD,2022-12-01 12:21:14,15.08833282,0.0002716,53.2185,19.9908,28.0318,332.082,9.4181e-05,1.211e-05,0.0,0 STARLINK-3887,1 52484U 22049AK  22335.51475206  .00001211  00000-0  94181-4 0  9997,2 52484  53.2185  19.9908 0002716  28.0318 332.0820 15.08833282 31971,6917.901,95.438,541.645,537.887,0.0
52484.0,STARLINK-3887,PAYLOAD,2022-12-01 23:28:55,15.08841033,0.0002788999999999,53.2181,17.9093,27.119,332.9948,0.0001996,2.89e-05,0.0,0 STARLINK-3887,1 52484U 22049AK  22335.97842491  .00002890  00000-0  19960-3 0  9996,2 52484  53.2181  17.9093 0002789  27.1190 332.9948 15.08841033 32208,6917.877,95.437,541.672,537.813,0.0
52484.0,STARLINK-3887,PAYLOAD,2022-12-02 09:01:15,15.08836734,0.0002979,53.2175,16.1256,26.9062,333.2085,0.00012306,1.67e-05,0.0,0 STARLINK-3887,1 52484U 22049AK  22336.37587065  .00001670  00000-0  12306-3 0  9996,2 52484  53.2175  16.1256 0002979  26.9062 333.2085 15.08836734 32263,6917.89,95.438,541.816,537.695,0.0
52484.0,STARLINK-3887,PAYLOAD,2022-12-03 12:02:48,15.08837894,0.0002641,53.2183,11.0689,27.9729,332.1404,0.00011176,1.491e-05,0.0,0 STARLINK-3887,1 52484U 22049AK  22337.50195005  .00001491  00000-0  11176-3 0  9996,2 52484  53.2183  11.0689 0002641  27.9729 332.1404 15.08837894 32433,6917.887,95.438,541.5790000000002,537.925,0.0
52484.0,STARLINK-3887,PAYLOAD,2022-12-03 13:38:11,15.08839337,0.000272,53.218,10.7715,27.2611,332.8523,0.00011774,1.586e-05,0.0,0 STARLINK-3887,1 52484U 22049AK  22337.56818954  .00001586  00000-0  11774-3 0  9996,2 52484  53.2180  10.7715 0002720  27.2611 332.8523 15.08839337 32283,6917.882,95.438,541.629,537.866,0.0
52484.0,STARLINK-3887,PAYLOAD,2022-12-04 13:28:58,15.088432699999998,0.0002753,53.2179,6.3112,25.7758,334.3371,8.7195e-05,1.1e-05,0.0,0 STARLINK-3887,1 52484U 22049AK  22338.56178677  .00001100  00000-0  87195-4 0  9991,2 52484  53.2179   6.3112 0002753  25.7758 334.3371 15.08843270 32430,6917.87,95.437,541.64,537.831,0.0
52484.0,STARLINK-3887,PAYLOAD,2022-12-05 05:22:49,15.0884483,0.0002786,53.2179,3.3376,27.3,332.8138,0.0001184,1.597e-05,0.0,0 STARLINK-3887,1 52484U 22049AK  22339.22418442  .00001597  00000-0  11840-3 0  9995,2 52484  53.2179   3.3376 0002786  27.3000 332.8138 15.08844830 32531,6917.866,95.437,541.658,537.803,0.0
52484.0,STARLINK-3887,PAYLOAD,2022-12-05 18:05:54,15.08841884,0.0002768,53.2179,0.9581,29.9536,330.1614,6.280600000000001e-05,7.11e-06,0.0,0 STARLINK-3887,1 52484U 22049AK  22339.75410582  .00000711  00000-0  62806-4 0  9996,2 52484  53.2179   0.9581 0002768  29.9536 330.1614 15.08841884 32776,6917.875,95.437,541.654,537.825,0.0
52484.0,STARLINK-3887,PAYLOAD,2022-12-06 02:02:49,15.08848032,0.0002477,53.2178,359.4688,33.3029,326.8119,0.0001016,1.329e-05,0.0,0 STARLINK-3887,1 52484U 22049AK  22340.08529887  .00001329  00000-0  10160-3 0  9994,2 52484  53.2178 359.4688 0002477  33.3029 326.8119 15.08848032 32828,6917.856,95.437,541.434,538.007,0.0
